[{"OBJECT_NAME":"STARLINK-6194","OBJECT_ID":"2023-088AF","EPOCH":"2026-03-09T22:00:01.999584","MEAN_MOTION":15.09307037,"ECCENTRICITY":0.00020802,"INCLINATION":43.0008,"RA_OF_ASC_NODE":93.3937,"ARG_OF_PERICENTER":252.002,"MEAN_ANOMALY":49.0592,"EPHEMERIS_TYPE":0,"CLASSIFICATION_TYPE":"U","NORAD_CAT_ID":57077,"ELEMENT_SET_NO":999,"REV_AT_EPOCH":577,"BSTAR":0.003453587,"MEAN_MOTION_DOT":0.00056239,"MEAN_MOTION_DDOT":0},{"OBJECT_NAME":"LEMUR-2-STELLA","OBJECT_ID":"2024-149BT","EPOCH":"2026-03-09T17:26:15.951264","MEAN_MOTION":15.09464064,"ECCENTRICITY":0.0001299,"INCLINATION":97.6764,"RA_OF_ASC_NODE":150.9122,"ARG_OF_PERICENTER":95.1117,"MEAN_ANOMALY":265.026,"EPHEMERIS_TYPE":0,"CLASSIFICATION_TYPE":"U","NORAD_CAT_ID":60533,"ELEMENT_SET_NO":999,"REV_AT_EPOCH":8548,"BSTAR":0.00085776432,"MEAN_MOTION_DOT":0.00013685,"MEAN_MOTION_DDOT":0}]
